 
    TWO LINE MEAN ELEMENT SET
  
    ISS
    1 25544U 98067A   20251.51881123  .00016717  00000-0  10270-3 0  9051
    2 25544  51.6432 301.0380 0001641  89.2550 270.8789 15.49240091  4773
  
  
    Satellite: ISS
    Catalog Number: 25544
    Epoch time:      20251.51881123   =   yrday.fracday
    Element set:     905
    Inclination:       51.6432  deg
    RA of node:       301.0380  deg
    Eccentricity:     .0001641     
    Arg of perigee:    89.2550  deg
    Mean anomaly:     270.8789  deg
    Mean motion:   15.49240091  rev/day
    Decay rate:    1.67170E-04  rev/day^2
    Epoch rev:             477
    Checksum:              288
 
 
    Coasting Arc #7 (Orbit 491)
    ---------------------------------------
 
    Vector Time (GMT): 2020/252/11:15:00.000
    Vector Time (MET): N/A
    Weight (LBS)     : 922462.6
 
              M50 Cartesian                         M50 Keplerian  
    -----------------------------------       --------------------------------
     X    =       -4234252.96                 A    =         6792003.63  meter
     Y    =        -901643.73  meter          E    =           .0016145
     Z    =       -5247702.08                 I    =           51.27078
     XDOT =       2620.819063                 Wp   =           84.04307
     YDOT =      -7129.958687  meter/sec      RA   =          295.57613  deg
     ZDOT =       -890.366065                 TA   =          177.37913
                                              MA   =          177.37066
                                              Ha   =            229.396  n.mi
                                              Hp   =            221.626
 
              M50 Cartesian                         J2K Cartesian  
    -----------------------------------       --------------------------------
     X    =      -13891906.04                 X    =        -4198365.35
     Y    =       -2958148.72  feet           Y    =         -948793.71  meter
     Z    =      -17216870.33                 Z    =        -5268183.32
     XDOT =       8598.487738                 XDOT =        2704.678529
     YDOT =     -23392.252911  feet/sec       YDOT =       -7100.181955  meter/sec
     ZDOT =      -2921.148508                 ZDOT =        -877.431153
 
              TDR Cartesian                         TDR Cartesian  
    -----------------------------------       --------------------------------
     X    =       11354232.02                 X    =         3460769.92
     Y    =        8340108.09  feet           Y    =         2542064.95  meter
     Z    =      -17311277.64                 Z    =        -5276477.43
     XDOT =     -16833.845794                 XDOT =       -5130.956198
     YDOT =      16983.665967  feet/sec       YDOT =        5176.621387  meter/sec
     ZDOT =      -2861.209694                 ZDOT =        -872.096715
  
  
    The mean element set is posted at the UTC for which position is
    just north of the next ascending node relative to the above
    vector time
 
 
    TWO LINE MEAN ELEMENT SET
  
    ISS
    1 25544U 98067A   20252.48640135  .00016717  00000-0  10270-3 0  9065
    2 25544  51.6422 296.2505 0001728  92.6543 267.4804 15.49198502  4928
  
  
    Satellite: ISS
    Catalog Number: 25544
    Epoch time:      20252.48640135   =   yrday.fracday
    Element set:     906
    Inclination:       51.6422  deg
    RA of node:       296.2505  deg
    Eccentricity:     .0001728     
    Arg of perigee:    92.6543  deg
    Mean anomaly:     267.4804  deg
    Mean motion:   15.49198502  rev/day
    Decay rate:    1.67170E-04  rev/day^2
    Epoch rev:             492
    Checksum:              307
 
 
    Coasting Arc #8 (Orbit 506)
    ---------------------------------------
 
    Vector Time (GMT): 2020/253/10:08:00.000
    Vector Time (MET): N/A
    Weight (LBS)     : 922462.6
 
              M50 Cartesian                         M50 Keplerian  
    -----------------------------------       --------------------------------
     X    =       -2607661.53                 A    =         6803584.25  meter
     Y    =        6272760.92  meter          E    =           .0012886
     Z    =        -257977.72                 I    =           51.29717
     XDOT =      -4342.034342                 Wp   =          131.56583
     YDOT =      -2042.285693  meter/sec      RA   =          290.82960  deg
     ZDOT =      -5971.384024                 TA   =           51.22140
                                              MA   =           51.10635
                                              Ha   =            229.333  n.mi
                                              Hp   =            221.751
 
              M50 Cartesian                         J2K Cartesian  
    -----------------------------------       --------------------------------
     X    =       -8555319.97                 X    =        -2676358.50
     Y    =       20579924.27  feet           Y    =         6243216.07  meter
     Z    =        -846383.61                 Z    =         -270811.76
     XDOT =     -14245.519494                 XDOT =       -4289.868481
     YDOT =      -6700.412378  feet/sec       YDOT =       -2090.549874  meter/sec
     ZDOT =     -19591.154934                 ZDOT =       -5992.349279
 
              TDR Cartesian                         TDR Cartesian  
    -----------------------------------       --------------------------------
     X    =       19774918.08                 X    =         6027395.03
     Y    =      -10274982.72  feet           Y    =        -3131814.73  meter
     Z    =        -905810.72                 Z    =         -276091.11
     XDOT =       5756.861183                 XDOT =        1754.691289
     YDOT =      12760.333158  feet/sec       YDOT =        3889.349547  meter/sec
     ZDOT =     -19687.749963                 ZDOT =       -6000.826189
  
  
    The mean element set is posted at the UTC for which position is
    just north of the next ascending node relative to the above
    vector time
 
 
    TWO LINE MEAN ELEMENT SET
  
    ISS
    1 25544U 98067A   20253.45398845  .00016717  00000-0  10270-3 0  9072
    2 25544  51.6426 291.4626 0001733  96.8781 263.2566 15.49226103  5074
  
  
    Satellite: ISS
    Catalog Number: 25544
    Epoch time:      20253.45398845   =   yrday.fracday
    Element set:     907
    Inclination:       51.6426  deg
    RA of node:       291.4626  deg
    Eccentricity:     .0001733     
    Arg of perigee:    96.8781  deg
    Mean anomaly:     263.2566  deg
    Mean motion:   15.49226103  rev/day
    Decay rate:    1.67170E-04  rev/day^2
    Epoch rev:             507
    Checksum:              320
 
 
    Coasting Arc #9 (Orbit 522)
    ---------------------------------------
 
    Vector Time (GMT): 2020/254/10:08:00.000
    Vector Time (MET): N/A
    Weight (LBS)     : 922462.6
 
              M50 Cartesian                         M50 Keplerian  
    -----------------------------------       --------------------------------
     X    =        2103303.12                 A    =         6803676.64  meter
     Y    =       -6455847.04  meter          E    =           .0014010
     Z    =         323595.65                 I    =           51.28664
     XDOT =       4470.267395                 Wp   =           53.48783
     YDOT =       1764.109143  meter/sec      RA   =          285.85627  deg
     ZDOT =       5966.277022                 TA   =          310.00993
                                              MA   =          310.13281
                                              Ha   =            229.411  n.mi
                                              Hp   =            221.787
 
              M50 Cartesian                         J2K Cartesian  
    -----------------------------------       --------------------------------
     X    =        6900600.77                 X    =         2173766.17
     Y    =      -21180600.52  feet           Y    =        -6431932.41  meter
     Z    =        1061665.53                 Z    =          333983.88
     XDOT =      14666.231612                 XDOT =        4421.227523
     YDOT =       5787.759655  feet/sec       YDOT =        1813.824713  meter/sec
     ZDOT =      19574.399677                 ZDOT =        5987.872765
 
              TDR Cartesian                         TDR Cartesian  
    -----------------------------------       --------------------------------
     X    =      -18686164.17                 X    =        -5695542.84
     Y    =       12122658.76  feet           Y    =         3694986.39  meter
     Z    =        1109809.21                 Z    =          338269.85
     XDOT =      -6766.838150                 XDOT =       -2062.532268
     YDOT =     -12281.257541  feet/sec       YDOT =       -3743.327299  meter/sec
     ZDOT =      19673.917633                 ZDOT =        5996.610095
  
  
    The mean element set is posted at the UTC for which position is
    just north of the next ascending node relative to the above
    vector time
 
 
    TWO LINE MEAN ELEMENT SET
  
    ISS
    1 25544U 98067A   20254.48608038  .00016717  00000-0  10270-3 0  9085
    2 25544  51.6430 286.3554 0001747  91.3566 268.7785 15.49189925  5239
  
  
    Satellite: ISS
    Catalog Number: 25544
    Epoch time:      20254.48608038   =   yrday.fracday
    Element set:     908
    Inclination:       51.6430  deg
    RA of node:       286.3554  deg
    Eccentricity:     .0001747     
    Arg of perigee:    91.3566  deg
    Mean anomaly:     268.7785  deg
    Mean motion:   15.49189925  rev/day
    Decay rate:    1.67170E-04  rev/day^2
    Epoch rev:             523
    Checksum:              338
 
 
    Coasting Arc #10 (Orbit 528)
    ---------------------------------------
 
